[{"OBJECT_NAME":"STARLINK-36369","OBJECT_ID":"2026-026C","EPOCH":"2026-03-09T22:00:01.999584","MEAN_MOTION":15.48557021,"ECCENTRICITY":0.00018859,"INCLINATION":97.2847,"RA_OF_ASC_NODE":123.4317,"ARG_OF_PERICENTER":70.9847,"MEAN_ANOMALY":342.6499,"EPHEMERIS_TYPE":0,"CLASSIFICATION_TYPE":"U","NORAD_CAT_ID":67723,"ELEMENT_SET_NO":999,"REV_AT_EPOCH":535,"BSTAR":-0.041406424,"MEAN_MOTION_DOT":-0.01972119,"MEAN_MOTION_DDOT":0},{"OBJECT_NAME":"CZ-4C DEB","OBJECT_ID":"2007-055C","EPOCH":"2026-03-09T22:46:15.652128","MEAN_MOTION":15.30523578,"ECCENTRICITY":0.00469709,"INCLINATION":97.8668,"RA_OF_ASC_NODE":247.2248,"ARG_OF_PERICENTER":277.363,"MEAN_ANOMALY":82.2273,"EPHEMERIS_TYPE":0,"CLASSIFICATION_TYPE":"U","NORAD_CAT_ID":35248,"ELEMENT_SET_NO":999,"REV_AT_EPOCH":97353,"BSTAR":0.0018809895,"MEAN_MOTION_DOT":0.000577,"MEAN_MOTION_DDOT":0}]
